NORAD_CAT_ID,OBJECT_NAME,OBJECT_TYPE,EPOCH,MEAN_MOTION,ECCENTRICITY,INCLINATION,RA_OF_ASC_NODE,ARG_OF_PERICENTER,MEAN_ANOMALY,BSTAR,MEAN_MOTION_DOT,MEAN_MOTION_DDOT,TLE_LINE0,TLE_LINE1,TLE_LINE2,SEMIMAJOR_AXIS,PERIOD,APOGEE,PERIGEE,DECAYED
53247.0,STARLINK-4061,PAYLOAD,2022-09-30 06:00:02,15.08824734,0.0001440999999999,53.2184,79.5002,70.0265,240.0716,0.00084725,0.00013216,0.0,0 STARLINK-4061,1 53247U 22086F   22273.25002315  .00013216  00000-0  84725-3 0  9995,2 53247  53.2184  79.5002 0001441  70.0265 240.0716 15.08824734 11137,6917.927,95.439,540.789,538.795,0.0
53247.0,STARLINK-4061,PAYLOAD,2022-09-30 14:00:01,15.0885278,0.000152,53.2186,78.0044,70.6428,250.969,-0.0010074,-0.00016291,0.0,0 STARLINK-4061,1 53247U 22086F   22273.58334491 -.00016291  00000-0 -10074-2 0  9997,2 53247  53.2186  78.0044 0001520  70.6428 250.9690 15.08852780  1305,6917.840999999999,95.437,540.758,538.655,0.0
53247.0,STARLINK-4061,PAYLOAD,2022-09-30 22:00:00,15.08841416,0.000155,53.2187,76.5094,60.9755,272.2456,0.00088331,0.00013798,0.0,0 STARLINK-4061,1 53247U 22086F   22273.91667824  .00013798  00000-0  88331-3 0  9992,2 53247  53.2187  76.5094 0001550  60.9755 272.2456 15.08841416  1303,6917.876,95.437,540.813,538.669,0.0
53247.0,STARLINK-4061,PAYLOAD,2022-10-01 14:00:01,15.08860423,0.0001440999999999,53.2193,73.5158,65.8086,290.5993,-0.0017162,-0.00027513,0.0,0 STARLINK-4061,1 53247U 22086F   22274.58334491 -.00027513  00000-0 -17162-2 0  9992,2 53247  53.2193  73.5158 0001441  65.8086 290.5993 15.08860423  1306,6917.818,95.436,540.68,538.686,0.0
53247.0,STARLINK-4061,PAYLOAD,2022-10-01 22:00:00,15.08828203,0.0001493,53.2192,72.0206,56.8745,311.1465,0.00026555,3.939e-05,0.0,0 STARLINK-4061,1 53247U 22086F   22274.91667824  .00003939  00000-0  26555-3 0  9999,2 53247  53.2192  72.0206 0001493  56.8745 311.1465 15.08828203  1306,6917.916,95.438,540.814,538.749,0.0
53247.0,STARLINK-4061,PAYLOAD,2022-10-02 14:00:01,15.0883122,0.0001524,53.2198,69.0272,64.039,327.1244,-0.0011795999999999,-0.00019008,0.0,0 STARLINK-4061,1 53247U 22086F   22275.58334491 -.00019008  00000-0 -11796-2 0  9990,2 53247  53.2198  69.0272 0001524  64.0390 327.1244 15.08831220  1308,6917.906999999997,95.438,540.827,538.7180000000002,0.0
53247.0,STARLINK-4061,PAYLOAD,2022-10-02 22:00:00,15.08812954,0.0001585,53.2196,67.5319,56.5813,346.1627,0.0029986,0.00047723,0.0,0 STARLINK-4061,1 53247U 22086F   22275.91667824  .00047723  00000-0  29986-2 0  9999,2 53247  53.2196  67.5319 0001585  56.5813 346.1627 15.08812954  1303,6917.9630000000025,95.439,540.925,538.732,0.0
53247.0,STARLINK-4061,PAYLOAD,2022-10-03 14:00:01,15.08874183,0.000147,53.2199,64.5386,61.2864,4.6418,-0.0033558999999999,-0.00053351,0.0,0 STARLINK-4061,1 53247U 22086F   22276.58334491 -.00053351  00000-0 -33559-2 0  9991,2 53247  53.2199  64.5386 0001470  61.2864   4.6418 15.08874183 11632,6917.776,95.435,540.658,538.624,0.0
53247.0,STARLINK-4061,PAYLOAD,2022-10-03 22:00:00,15.08847963,0.0001536,53.2196,63.043,53.2346,24.3044,0.00021697,3.168e-05,0.0,0 STARLINK-4061,1 53247U 22086F   22276.91667824  .00003168  00000-0  21697-3 0  9997,2 53247  53.2196  63.0430 0001536  53.2346  24.3044 15.08847963  1305,6917.856,95.437,540.784,538.658,0.0
53247.0,STARLINK-4061,PAYLOAD,2022-10-04 06:00:00,15.08812085,0.0001437,53.2197,61.545,63.0591,26.0972,0.0033699,0.00053712,0.0,0 STARLINK-4061,1 53247U 22086F   22277.25001157  .00053712  00000-0  33699-2 0  9990,2 53247  53.2197  61.5450 0001437  63.0591  26.0972 15.08812085 11736,6917.965999999999,95.439,540.825,538.837,0.0
53247.0,STARLINK-4061,PAYLOAD,2022-10-04 14:00:01,15.08855466,0.0001602,53.2197,60.0498,62.4983,38.2398,-0.0024915,-0.00039739,0.0,0 STARLINK-4061,1 53247U 22086F   22277.58334491 -.00039739  00000-0 -24915-2 0  9992,2 53247  53.2197  60.0498 0001602  62.4983  38.2398 15.08855466  1303,6917.833000000001,95.437,540.806,538.59,0.0
53247.0,STARLINK-4061,PAYLOAD,2022-10-04 22:00:00,15.08839208,0.0001647,53.2193,58.554,56.3981,55.9325,-0.00039015,-6.492e-05,0.0,0 STARLINK-4061,1 53247U 22086F   22277.91667824 -.00006492  00000-0 -39015-3 0  9996,2 53247  53.2193  58.5540 0001647  56.3981  55.9325 15.08839208  1300,6917.8830000000025,95.438,540.887,538.6080000000002,0.0
53247.0,STARLINK-4061,PAYLOAD,2022-10-05 14:00:01,15.08847594,0.0001474,53.2193,55.5609,58.6636,76.9038,-0.0028531,-0.00045418,0.0,0 STARLINK-4061,1 53247U 22086F   22278.58335648 -.00045418  00000-0 -28531-2 0  9997,2 53247  53.2193  55.5609 0001474  58.6636  76.9038 15.08847594  1304,6917.857,95.437,540.742,538.702,0.0
53247.0,STARLINK-4061,PAYLOAD,2022-10-05 22:00:00,15.08821968,0.0001531999999999,53.2185,54.0631,51.5778,95.5106,0.0017504999999999,0.00027667,0.0,0 STARLINK-4061,1 53247U 22086F   22278.91667824  .00027667  00000-0  17505-2 0  9991,2 53247  53.2185  54.0631 0001532  51.5778  95.5106 15.08821968  1308,6917.936,95.439,540.86,538.741,0.0
53247.0,STARLINK-4061,PAYLOAD,2022-10-06 06:00:00,15.08837959,0.0001421,53.2189,52.5671,61.1712,97.5163,0.00057393,8.857e-05,0.0,0 STARLINK-4061,1 53247U 22086F   22279.25001157  .00008857  00000-0  57393-3 0  9990,2 53247  53.2189  52.5671 0001421  61.1712  97.5163 15.08837959 12035,6917.887,95.438,540.735,538.769,0.0
53247.0,STARLINK-4061,PAYLOAD,2022-10-06 14:00:01,15.08851901,0.0001588999999999,53.219,51.0721,57.8457,112.4376,-0.0011279999999999,-0.00018201,0.0,0 STARLINK-4061,1 53247U 22086F   22279.58334491 -.00018201  00000-0 -11280-2 0  9996,2 53247  53.2190  51.0721 0001589  57.8457 112.4376 15.08851901  1304,6917.844,95.437,540.808,538.61,0.0
53247.0,STARLINK-4061,PAYLOAD,2022-10-06 22:42:55,15.08857121,0.00016,53.2188,49.442,52.1434,291.6503,-0.002725,-0.00043416,0.0,0 STARLINK-4061,1 53247U 22086F   22279.94646991 -.00043416  00000-0 -27250-2 0  9997,2 53247  53.2188  49.4420 0001600  52.1434 291.6503 15.08857121  1307,6917.828,95.436,540.8,538.586,0.0
53247.0,STARLINK-4061,PAYLOAD,2022-10-07 06:00:00,15.088099599999998,0.0001567,53.2189,48.0779,60.1711,133.3264,0.0029445,0.00046847,0.0,0 STARLINK-4061,1 53247U 22086F   22280.25001157  .00046847  00000-0  29445-2 0  9999,2 53247  53.2189  48.0779 0001567  60.1711 133.3264 15.08809960 12181,6917.972,95.439,540.9209999999998,538.753,0.0
53247.0,STARLINK-4061,PAYLOAD,2022-10-07 14:00:01,15.08837545,0.0001763,53.2192,46.5831,57.5093,147.5694,-0.0014988,-0.00024061,0.0,0 STARLINK-4061,1 53247U 22086F   22280.58334491 -.00024061  00000-0 -14988-2 0  9997,2 53247  53.2192  46.5831 0001763  57.5093 147.5694 15.08837545  1304,6917.888000000001,95.438,540.9730000000002,538.533,0.0
53247.0,STARLINK-4061,PAYLOAD,2022-10-07 22:00:00,15.08837247,0.0001758,53.2192,45.0868,52.8561,163.8058,-0.00097719,-0.00015805,0.0,0 STARLINK-4061,1 53247U 22086F   22280.91667824 -.00015805  00000-0 -97719-3 0  9993,2 53247  53.2192  45.0868 0001758  52.8561 163.8058 15.08837247 12283,6917.889,95.438,540.97,538.538,0.0
53247.0,STARLINK-4061,PAYLOAD,2022-10-08 14:00:01,15.08825358,0.0001706,53.2183,42.0943,51.6991,188.1297,0.00081601,0.00012717,0.0,0 STARLINK-4061,1 53247U 22086F   22281.58334491  .00012717  00000-0  81601-3 0  9998,2 53247  53.2183  42.0943 0001706  51.6991 188.1297 15.08825358  1307,6917.925,95.438,540.97,538.61,0.0
53247.0,STARLINK-4061,PAYLOAD,2022-10-08 22:00:00,15.08861991,0.0001666999999999,53.2178,40.598,46.3667,205.042,-0.0021905,-0.00035002,0.0,0 STARLINK-4061,1 53247U 22086F   22281.91667824 -.00035002  00000-0 -21905-2 0  9998,2 53247  53.2178  40.5980 0001667  46.3667 205.0420 15.08861991  1302,6917.813,95.436,540.831,538.525,0.0
53247.0,STARLINK-4061,PAYLOAD,2022-10-09 14:00:01,15.08845676,0.0001781,53.2185,37.6055,47.7005,226.8837,-4.586399999999999e-05,-1.018e-05,0.0,0 STARLINK-4061,1 53247U 22086F   22282.58334491 -.00001018  00000-0 -45864-4 0  9995,2 53247  53.2185  37.6055 0001781  47.7005 226.8837 15.08845676  1303,6917.863,95.437,540.96,538.496,0.0
53247.0,STARLINK-4061,PAYLOAD,2022-10-09 22:00:00,15.08873526,0.0001781999999999,53.2186,36.1091,44.3537,241.8256,-0.0023550999999999,-0.00037609,0.0,0 STARLINK-4061,1 53247U 22086F   22282.91667824 -.00037609  00000-0 -23551-2 0  9993,2 53247  53.2186  36.1091 0001782  44.3537 241.8256 15.08873526 12592,6917.778,95.435,540.876,538.41,0.0
53247.0,STARLINK-4061,PAYLOAD,2022-10-10 14:00:01,15.08948609,0.0001735,53.2181,33.1103,48.9929,260.4076,-0.019278,-0.00295608,0.0,0 STARLINK-4061,1 53247U 22086F   22283.58334491 -.00295608  00000-0 -19278-1 0  9993,2 53247  53.2181  33.1103 0001735  48.9929 260.4076 15.08948609  1300,6917.5480000000025,95.431,540.614,538.2130000000002,0.0
53247.0,STARLINK-4061,PAYLOAD,2022-10-10 22:00:01,15.08945067,0.0001838,53.2179,31.6139,41.9692,279.1049,-0.020225,-0.00309493,0.0,0 STARLINK-4061,1 53247U 22086F   22283.91668981 -.00309493  00000-0 -20225-1 0  9996,2 53247  53.2179  31.6139 0001838  41.9692 279.1049 15.08945067 12745,6917.559,95.431,540.696,538.153,0.0
53247.0,STARLINK-4061,PAYLOAD,2022-10-11 06:00:00,15.08803928,0.0001737,53.2188,30.1203,50.8986,281.6925,0.001001,0.00015663,0.0,0 STARLINK-4061,1 53247U 22086F   22284.25001157  .00015663  00000-0  10010-2 0  9993,2 53247  53.2188  30.1203 0001737  50.8986 281.6925 15.08803928 12799,6917.991,95.44,541.057,538.654,0.0
53247.0,STARLINK-4061,PAYLOAD,2022-10-11 14:00:01,15.0874117,0.0001933,53.2179,28.6164,44.7269,299.4367,0.0094738,0.00153374,0.0,0 STARLINK-4061,1 53247U 22086F   22284.58334491  .00153374  00000-0  94738-2 0  9990,2 53247  53.2179  28.6164 0001933  44.7269 299.4367 15.08741170  1303,6918.182,95.444,541.385,538.71,0.0
53247.0,STARLINK-4061,PAYLOAD,2022-10-11 22:00:00,15.08829791,0.0001919,53.219,27.1317,48.4415,307.2411,-0.00051196,-8.425e-05,0.0,0 STARLINK-4061,1 53247U 22086F   22284.91667824 -.00008425  00000-0 -51196-3 0  9996,2 53247  53.2190  27.1317 0001919  48.4415 307.2411 15.08829791  1302,6917.9119999999975,95.438,541.104,538.4490000000002,0.0
